[{"OBJECT_NAME":"STARLINK-33660","OBJECT_ID":"2025-053P","EPOCH":"2026-03-09T12:20:23.132832","MEAN_MOTION":15.2758397,"ECCENTRICITY":0.00012177,"INCLINATION":42.9984,"RA_OF_ASC_NODE":243.0212,"ARG_OF_PERICENTER":244.6638,"MEAN_ANOMALY":115.4088,"EPHEMERIS_TYPE":0,"CLASSIFICATION_TYPE":"U","NORAD_CAT_ID":63278,"ELEMENT_SET_NO":999,"REV_AT_EPOCH":5616,"BSTAR":0.0011391491,"MEAN_MOTION_DOT":0.00031221,"MEAN_MOTION_DDOT":0},{"OBJECT_NAME":"CZ-4C R\/B","OBJECT_ID":"2024-089B","EPOCH":"2026-03-09T16:45:24.409152","MEAN_MOTION":15.30115456,"ECCENTRICITY":0.00763424,"INCLINATION":97.7122,"RA_OF_ASC_NODE":107.3872,"ARG_OF_PERICENTER":235.0262,"MEAN_ANOMALY":124.3793,"EPHEMERIS_TYPE":0,"CLASSIFICATION_TYPE":"U","NORAD_CAT_ID":59729,"ELEMENT_SET_NO":999,"REV_AT_EPOCH":10143,"BSTAR":0.00030010198,"MEAN_MOTION_DOT":9.476e-5,"MEAN_MOTION_DDOT":0}]
